{"fetched_at":"2026-07-12T05:53:13.988Z","source":"https://celestrak.org/NORAD/elements/gp.php?NAME=SENTINEL&FORMAT=JSON","constellation":"sentinel-2","records":[{"OBJECT_NAME":"SENTINEL-2A","OBJECT_ID":"2015-028A","EPOCH":"2026-07-11T19:55:18.365088","CLASSIFICATION_TYPE":"U","MEAN_MOTION":14.30813377,"ECCENTRICITY":0.0001264,"INCLINATION":98.568,"RA_OF_ASC_NODE":267.331,"ARG_OF_PERICENTER":95.5961,"MEAN_ANOMALY":264.5366,"EPHEMERIS_TYPE":0,"NORAD_CAT_ID":40697,"ELEMENT_SET_NO":999,"REV_AT_EPOCH":57725,"BSTAR":0.0000028508,"MEAN_MOTION_DOT":-3.6e-7,"MEAN_MOTION_DDOT":0},{"OBJECT_NAME":"SENTINEL-2B","OBJECT_ID":"2017-013A","EPOCH":"2026-07-11T19:44:57.369408","CLASSIFICATION_TYPE":"U","MEAN_MOTION":14.30814471,"ECCENTRICITY":0.0001221,"INCLINATION":98.5687,"RA_OF_ASC_NODE":267.2489,"ARG_OF_PERICENTER":89.9689,"MEAN_ANOMALY":270.1634,"EPHEMERIS_TYPE":0,"NORAD_CAT_ID":42063,"ELEMENT_SET_NO":999,"REV_AT_EPOCH":48816,"BSTAR":0.000043689,"MEAN_MOTION_DOT":7.1e-7,"MEAN_MOTION_DDOT":0},{"OBJECT_NAME":"SENTINEL-2C","OBJECT_ID":"2024-157A","EPOCH":"2026-07-11T18:54:37.787904","CLASSIFICATION_TYPE":"U","MEAN_MOTION":14.30815045,"ECCENTRICITY":0.0000951,"INCLINATION":98.5685,"RA_OF_ASC_NODE":267.221,"ARG_OF_PERICENTER":100.0573,"MEAN_ANOMALY":260.0717,"EPHEMERIS_TYPE":0,"NORAD_CAT_ID":60989,"ELEMENT_SET_NO":999,"REV_AT_EPOCH":9650,"BSTAR":0.0000274,"MEAN_MOTION_DOT":2.8e-7,"MEAN_MOTION_DDOT":0}]}
